SatCatId,ObjectName,LaunchYear,OrbitalPeriod,LaunchMass,StatusCode,Inclination,Status,UcsData,OrbitClassEstimated,LaunchSiteCountry,Owner,UseType,Purpose,LaunchVehicleClass,TLE1,TLE2,MeanMotion,Eccentricity,OrbitClass
39078,AMAZONAS 3,2013,1436.07,6265.0,+,0.02,Active,1,GSO,French Guiana,Spain,Commercial,Communications,Ariane,1 39078U 13006A   23141.03890612 -.00000280  00000+0  00000+0 0  9996,2 39078   0.0241 220.3284 0001464 219.8051 111.2913  1.00273849 37707,1.00273849,0.0001464,GEO
39079,AZERSPACE 1,2013,1436.14,3250.0,+,0.01,Active,1,GSO,French Guiana,Azerbaijan,Government,Communications,Ariane,1 39079U 13006B   23140.84520383  .00000136  00000+0  00000+0 0  9999,2 39079   0.0178  35.3126 0001723  46.9625 146.2341  1.00269044 37547,1.00269044,0.0001723,GEO
39084,LANDSAT 8,2013,98.83,2780.0,+,98.23,Active,1,LEO,USA,USA,Government,Earth Observation,Atlas,1 39084U 13008A   23141.14067423  .00000531  00000+0  12789-3 0  9992,2 39084  98.2269 211.4109 0001213  88.0675 272.0662 14.57103956546170,14.57103956,0.0001213,LEO
39086,SARAL,2013,100.55,407.0,+,98.55,Active,1,LEO,India,India,Government,Earth Observation,PSLV,1 39086U 13009A   23140.85318591  .00000146  00000+0  70384-4 0  9995,2 39086  98.5480 326.5415 0002326  38.7937 321.3414 14.32191730534773,14.3219173,0.0002326,LEO
39087,AAUSAT 3,2013,100.23,-1.0,-,98.38,Inactive,0,LEO,India,Denmark,Unknown,Unknown,PSLV,1 39087U 13009B   23141.04991636  .00000847  00000+0  30125-3 0  9991,2 39087  98.3829 336.9007 0011841 345.1901  14.8937 14.36760108536040,14.36760108,0.0011841,LEO
39088,SAPPHIRE,2013,100.39,148.0,+,98.42,Active,1,LEO,India,Canada,Military,Space Science,PSLV,1 39088U 13009C   23140.76474941  .00000168  00000+0  74700-4 0  9999,2 39088  98.4158 332.8929 0011272   0.1635 359.9552 14.34452328535477,14.34452328,0.0011272,LEO
39089,NEOSSAT,2013,100.36,74.0,+,98.41,Active,1,LEO,India,Canada,Government,Space Science,PSLV,1 39089U 13009D   23140.78668932  .00000229  00000+0  95665-4 0  9998,2 39089  98.4107 333.4743 0011191   0.4967 359.6228 14.34862986535588,14.34862986,0.0011191,LEO
39090,STRAND-1,2013,100.31,-1.0,+,98.39,Active,0,LEO,India,UK,Unknown,Unknown,PSLV,1 39090U 13009E   23140.82100404  .00000391  00000+0  15040-3 0  9998,2 39090  98.3898 334.9329 0008770 354.4647   5.6440 14.35584011535796,14.35584011,0.000877,LEO
39091,BRITE-AUSTRIA,2013,100.32,14.0,+,98.39,Active,1,LEO,India,Austria,Civil,Technology Development,PSLV,1 39091U 13009F   23140.53872231  .00000245  00000+0  99846-4 0  9996,2 39091  98.3926 333.8812 0010383   0.8370 359.2831 14.35475978535784,14.35475978,0.0010383,LEO
39092,UNIBRITE,2013,100.32,-1.0,-,98.4,Inactive,0,LEO,India,Austria,Unknown,Unknown,PSLV,1 39092U 13009G   23140.79974571  .00000260  00000+0  10556-3 0  9992,2 39092  98.3963 333.9653 0009170 356.4077   3.7041 14.35348351535773,14.35348351,0.000917,LEO
39120,SBIRS GEO-2 (USA 241),2013,1436.1,4500.0,+,2.33,Active,1,GSO,USA,USA,Military,Earth Observation,Atlas,1 39120U 13011A   23141.04352586 -.00000255  00000+0  00000+0 0  9996,2 39120   2.3272  37.0985 0002031  19.1653 159.8349  1.00271561 37323,1.00271561,0.0002031,GSO
39122,EUTELSAT 117 WEST A,2013,1436.11,5474.0,+,0.01,Active,1,GSO,Kazakhstan,EUTELSAT,Commercial,Communications,Proton,1 39122U 13012A   23140.66928997 -.00000010  00000+0  00000+0 0  9990,2 39122   0.0120 337.1963 0002709  76.4463 308.5629  1.00270925 37168,1.00270925,0.0002709,GEO
39127,ANIK G1,2013,1436.09,4905.0,+,0.02,Active,1,GSO,Kazakhstan,Canada,Commercial,Communications,Proton,1 39127U 13014A   23140.67129476 -.00000071  00000+0  00000+0 0  9990,2 39127   0.0143 338.0711 0001182  39.0187 355.3428  1.00271803 36983,1.00271803,0.0001182,GEO
39132,DOVE 2,2013,95.13,-1.0,-,64.87,Inactive,0,LEO,Kazakhstan,USA,Unknown,Unknown,Soyuz,1 39132U 13015C   23140.87990162  .00008921  00000+0  49684-3 0  9993,2 39132  64.8737 238.1686 0030114 245.3787 114.4200 15.13773857554760,15.13773857,0.0030114,LEO
39133,AIST-2 (RS-43),2013,95.45,-1.0,-,64.87,Inactive,0,LEO,Kazakhstan,Russia/USSR,Unknown,Unknown,Soyuz,1 39133U 13015D   23141.13327495  .00004778  00000+0  31218-3 0  9997,2 39133  64.8736 277.0997 0031797 246.2381 113.5405 15.08601733554006,15.08601733,0.0031797,LEO
39134,SOMP,2013,92.48,-1.0,+,64.85,Active,0,LEO,Kazakhstan,Germany,Unknown,Unknown,Soyuz,1 39134U 13015E   23140.91948784  .00109070  00000+0  14538-2 0  9999,2 39134  64.8512  19.1431 0017271 251.8984 108.0281 15.57372467558737,15.57372467,0.0017271,LEO
39135,BEESAT-3,2013,93.44,-1.0,+,64.86,Active,0,LEO,Kazakhstan,Germany,Unknown,Unknown,Soyuz,1 39135U 13015F   23141.12251926  .00047842  00000+0  11377-2 0  9995,2 39135  64.8605  67.7260 0020864 242.3304 117.5716 15.41147247558190,15.41147247,0.0020864,LEO
39136,BEESAT-2,2013,93.61,-1.0,+,64.87,Active,0,LEO,Kazakhstan,Germany,Unknown,Unknown,Soyuz,1 39136U 13015G   23140.20616231  .00042612  00000+0  11100-2 0  9992,2 39136  64.8695  81.9110 0026419 277.2631  82.5502 15.38279619557372,15.38279619,0.0026419,LEO
39150,GAOFEN 1,2013,97.53,1000.0,+,98.03,Active,1,LEO,PRC,China,Government,Earth Observation,Long March,1 39150U 13018A   23141.20042289  .00000898  00000+0  13626-3 0  9994,2 39150  98.0308 211.6896 0019836 277.7658  82.1299 14.76454316542564,14.76454316,0.0019836,LEO
39151,NEE-01 PEGASO,2013,97.12,-1.0,P,98.01,Active,0,LEO,PRC,Ecuador,Unknown,Unknown,Long March,1 39151U 13018B   23141.06017774  .00003023  00000+0  38109-3 0  9996,2 39151  98.0066 251.1906 0015098 237.0603 122.9158 14.82660179543675,14.82660179,0.0015098,LEO
39152,TURKSAT-3USAT,2013,97.06,-1.0,-,97.85,Inactive,0,LEO,PRC,Turkey,Unknown,Unknown,Long March,1 39152U 13018C   23141.17064827  .00003457  00000+0  42402-3 0  9992,2 39152  97.8496 228.0136 0015370 204.9310 155.1163 14.83678989543874,14.83678989,0.001537,LEO
39153,CUBEBUG-1 (CAPITAN BETO),2013,97.06,-1.0,-,98.04,Inactive,0,LEO,PRC,Argentina,Unknown,Unknown,Long March,1 39153U 13018D   23141.07598037  .00003662  00000+0  44889-3 0  9996,2 39153  98.0358 257.1106 0014980 230.5616 129.4272 14.83696428543856,14.83696428,0.001498,LEO
39155,COSMOS 2485 [GLONASS-M],2013,675.73,1415.0,+,64.9,Active,1,MEO,Russia,Russia/USSR,Commercial/Military,Navigation (Global or Regional Positioning),Soyuz,1 39155U 13019A   23139.09698319  .00000013  00000+0  00000+0 0  9992,2 39155  64.8983 111.5108 0023797 237.4673 122.2712  2.13101879 78318,2.13101879,0.0023797,MEO
39157,CHINASAT 11 (ZX 11),2013,1436.09,5100.0,+,0.04,Active,1,GSO,PRC,China,Commercial,Communications,Long March,1 39157U 13020A   23140.90647505 -.00000288  00000+0  00000+0 0  9994,2 39157   0.0486 111.7759 0001262 259.7258 291.0238  1.00272230 36635,1.0027223,0.0001262,GEO
39159,PROBA-V,2013,101.19,140.0,+,98.32,Active,1,LEO,French Guiana,ESA,Government,Earth Observation,Vega,1 39159U 13021A   23141.06912035  .00000132  00000+0  76425-4 0  9994,2 39159  98.3214 164.2891 0004347 166.5828 193.5468 14.23111925521341,14.23111925,0.0004347,LEO
39160,VNREDSAT 1,2013,98.43,115.0,+,98.04,Active,1,LEO,French Guiana,Vietnam,Government,Earth Observation,Vega,1 39160U 13021B   23141.17137219  .00000847  00000+0  17438-3 0  9992,2 39160  98.0405 213.8249 0001052  94.1876 265.9446 14.62981801535996,14.62981801,0.0001052,LEO
39161,ESTCUBE 1,2013,97.68,-1.0,+,97.87,Active,0,LEO,French Guiana,Estonia,Unknown,Unknown,Vega,1 39161U 13021C   23141.00389766  .00001964  00000+0  30441-3 0  9991,2 39161  97.8722 214.0411 0010467  63.0116 297.2161 14.74226801539173,14.74226801,0.0010467,LEO
39163,EUTELSAT 7B,2013,1436.08,5404.0,+,0.08,Active,1,GSO,Kazakhstan,EUTELSAT,Commercial,Communications,Proton,1 39163U 13022A   23141.09910594  .00000051  00000+0  00000+0 0  9992,2 39163   0.0775  28.9195 0004927   0.5809 251.6599  1.00273148 36698,1.00273148,0.0004927,GEO
39166,NAVSTAR 68 (USA 242),2013,717.97,1630.0,+,55.45,Active,1,MEO,USA,USA,Commercial/Military,Navigation (Global or Regional Positioning),Atlas,1 39166U 13023A   23140.38350445 -.00000080  00000+0  00000+0 0  9993,2 39166  55.4462 314.3991 0114251  41.2724 319.5709  2.00564719 73342,2.00564719,0.0114251,MEO
39168,WGS F5 (USA 243),2013,1436.1,5990.0,+,0.02,Active,1,GSO,USA,USA,Military,Communications,Delta,1 39168U 13024A   23140.82559176 -.00000281  00000+0  00000+0 0  9990,2 39168   0.0183 309.9284 0000979 293.7886 239.2051  1.00270068 35918,1.00270068,9.79e-05,GEO
39172,SES-6,2013,1436.09,6140.0,+,0.02,Active,1,GSO,Kazakhstan,SES,Commercial,Communications,Proton,1 39172U 13026A   23140.82794521 -.00000258  00000+0  00000+0 0  9996,2 39172   0.0184 335.1814 0002279  76.7047  83.8864  1.00272254 36462,1.00272254,0.0002279,GEO
39177,COSMOS 2486,2013,98.97,7000.0,+,97.91,Active,1,LEO,Russia,Russia/USSR,Military,Earth Observation,Soyuz,1 39177U 13028A   23141.22239291  .00000262  00000+0  70681-4 0  9997,2 39177  97.9062 146.1556 0009679 278.4274  81.5827 14.55021355528013,14.55021355,0.0009679,LEO
39186,RESURS P1,2013,93.2,5900.0,+,97.07,Active,1,LEO,Kazakhstan,Russia/USSR,Commercial/Government,Earth Observation,Soyuz,1 39186U 13030A   23141.15502857  .00018163  00000+0  38439-3 0  9996,2 39186  97.0709 192.5948 0012425 201.6119 158.4608 15.45092117554408,15.45092117,0.0012425,LEO
39188,O3B FM5,2013,287.93,700.0,+,0.06,Active,1,MEO,French Guiana,O3b Networks,Commercial,Communications,Soyuz,1 39188U 13031A   23140.69265716 -.00000025  00000+0  00000+0 0  9995,2 39188   0.0554 348.5665 0003019  72.7759 298.6884  5.00115595180838,5.00115595,0.0003019,MEO
39189,O3B FM4,2013,287.93,700.0,+,0.04,Active,1,MEO,French Guiana,O3b Networks,Commercial,Communications,Soyuz,1 39189U 13031B   23140.74843683 -.00000025  00000+0  00000+0 0  9997,2 39189   0.0433  18.4505 0002958  42.8201 298.7595  5.00116051180852,5.00116051,0.0002958,MEO
39190,O3B FM2,2013,287.93,700.0,+,0.04,Active,1,MEO,French Guiana,O3b Networks,Commercial,Communications,Soyuz,1 39190U 13031C   23140.44040104 -.00000025  00000+0  00000+0 0  9993,2 39190   0.0417  24.9022 0002851  34.4917 300.6347  5.00115254180891,5.00115254,0.0002851,MEO
